{
  "type": "FeatureCollection",
  "features": [
    {
      "type": "Feature",
      "properties": {
        "norad_id": 66478,
        "name": "STARLINK-35283",
        "group": "last-30-days",
        "lat": -38.53774193687315,
        "lon": 23.68910102251214,
        "alt_km": 416.7988852352246,
        "timestamp": "2025-12-10T18:56:58.832260+00:00",
        "meta_object_name": "STARLINK-35283",
        "meta_object_id": "2025-262Y",
        "meta_epoch": "2025-12-10T11:30:14.296032",
        "meta_mean_motion": 15.50605002,
        "meta_eccentricity": 0.0001721,
        "meta_inclination": 43.0004,
        "meta_ra_of_asc_node": 84.2369,
        "meta_arg_of_pericenter": 275.9464,
        "meta_mean_anomaly": 84.12,
        "meta_ephemeris_type": 0,
        "meta_classification_type": "U",
        "meta_norad_cat_id": 66478,
        "meta_element_set_no": 999,
        "meta_rev_at_epoch": 521,
        "meta_bstar": 0.0020069,
        "meta_mean_motion_dot": 0.00119316,
        "meta_mean_motion_ddot": 0,
        "tle_line1": "1 66478U 25262Y   25344.47933213  .00119316  00000+0  20069-2 0  9997",
        "tle_line2": "2 66478  43.0004  84.2369 0001721 275.9464  84.1200 15.50605002  5211"
      },
      "geometry": {
        "type": "Point",
        "coordinates": [
          23.68910102251214,
          -38.53774193687315
        ]
      }
    },
    {
      "type": "Feature",
      "properties": {
        "norad_id": 66479,
        "name": "STARLINK-35581",
        "group": "last-30-days",
        "lat": -39.7920008163902,
        "lon": 19.073882059047058,
        "alt_km": 416.72809778886585,
        "timestamp": "2025-12-10T18:56:58.832270+00:00",
        "meta_object_name": "STARLINK-35581",
        "meta_object_id": "2025-262Z",
        "meta_epoch": "2025-12-10T11:31:13.291680",
        "meta_mean_motion": 15.50620871,
        "meta_eccentricity": 0.000183,
        "meta_inclination": 43.0008,
        "meta_ra_of_asc_node": 84.243,
        "meta_arg_of_pericenter": 277.3252,
        "meta_mean_anomaly": 82.74,
        "meta_ephemeris_type": 0,
        "meta_classification_type": "U",
        "meta_norad_cat_id": 66479,
        "meta_element_set_no": 999,
        "meta_rev_at_epoch": 521,
        "meta_bstar": 0.001868,
        "meta_mean_motion_dot": 0.00110976,
        "meta_mean_motion_ddot": 0,
        "tle_line1": "1 66479U 25262Z   25344.48001495  .00110976  00000+0  18680-2 0  9996",
        "tle_line2": "2 66479  43.0008  84.2430 0001830 277.3252  82.7400 15.50620871  5214"
      },
      "geometry": {
        "type": "Point",
        "coordinates": [
          19.073882059047058,
          -39.7920008163902
        ]
      }
    },
    {
      "type": "Feature",
      "properties": {
        "norad_id": 66480,
        "name": "STARLINK-35670",
        "group": "last-30-days",
        "lat": -37.83677097863203,
        "lon": 25.957089841698465,
        "alt_km": 416.7242483716209,
        "timestamp": "2025-12-10T18:56:58.832280+00:00",
        "meta_object_name": "STARLINK-35670",
        "meta_object_id": "2025-262AA",
        "meta_epoch": "2025-12-10T11:29:44.666016",
        "meta_mean_motion": 15.50607667,
        "meta_eccentricity": 0.0001714,
        "meta_inclination": 43.0005,
        "meta_ra_of_asc_node": 84.2342,
        "meta_arg_of_pericenter": 282.5055,
        "meta_mean_anomaly": 77.5613,
        "meta_ephemeris_type": 0,
        "meta_classification_type": "U",
        "meta_norad_cat_id": 66480,
        "meta_element_set_no": 999,
        "meta_rev_at_epoch": 521,
        "meta_bstar": 0.002156,
        "meta_mean_motion_dot": 0.00128365,
        "meta_mean_motion_ddot": 0,
        "tle_line1": "1 66480U 25262AA  25344.47898919  .00128365  00000+0  21560-2 0  9994",
        "tle_line2": "2 66480  43.0005  84.2342 0001714 282.5055  77.5613 15.50607667  5211"
      },
      "geometry": {
        "type": "Point",
        "coordinates": [
          25.957089841698465,
          -37.83677097863203
        ]
      }
    },
    {
      "type": "Feature",
      "properties": {
        "norad_id": 66481,
        "name": "STARLINK-35698",
        "group": "last-30-days",
        "lat": -37.096856285924694,
        "lon": 28.16910885341462,
        "alt_km": 416.734669360495,
        "timestamp": "2025-12-10T18:56:58.832290+00:00",
        "meta_object_name": "STARLINK-35698",
        "meta_object_id": "2025-262AB",
        "meta_epoch": "2025-12-10T11:29:14.970336",
        "meta_mean_motion": 15.50605276,
        "meta_eccentricity": 0.0001733,
        "meta_inclination": 43.0006,
        "meta_ra_of_asc_node": 84.2308,
        "meta_arg_of_pericenter": 281.2213,
        "meta_mean_anomaly": 78.8452,
        "meta_ephemeris_type": 0,
        "meta_classification_type": "U",
        "meta_norad_cat_id": 66481,
        "meta_element_set_no": 999,
        "meta_rev_at_epoch": 521,
        "meta_bstar": 0.0017986,
        "meta_mean_motion_dot": 0.00106726,
        "meta_mean_motion_ddot": 0,
        "tle_line1": "1 66481U 25262AB  25344.47864549  .00106726  00000+0  17986-2 0  9991",
        "tle_line2": "2 66481  43.0006  84.2308 0001733 281.2213  78.8452 15.50605276  5217"
      },
      "geometry": {
        "type": "Point",
        "coordinates": [
          28.16910885341462,
          -37.096856285924694
        ]
      }
    },
    {
      "type": "Feature",
      "properties": {
        "norad_id": 66482,
        "name": "STARLINK-35648",
        "group": "last-30-days",
        "lat": -36.306162671533286,
        "lon": 30.36453760636473,
        "alt_km": 416.63751440613487,
        "timestamp": "2025-12-10T18:56:58.832300+00:00",
        "meta_object_name": "STARLINK-35648",
        "meta_object_id": "2025-262AC",
        "meta_epoch": "2025-12-10T11:28:45.271200",
        "meta_mean_motion": 15.50614152,
        "meta_eccentricity": 0.0001746,
        "meta_inclination": 43.0004,
        "meta_ra_of_asc_node": 84.228,
        "meta_arg_of_pericenter": 283.0323,
        "meta_mean_anomaly": 77.0342,
        "meta_ephemeris_type": 0,
        "meta_classification_type": "U",
        "meta_norad_cat_id": 66482,
        "meta_element_set_no": 999,
        "meta_rev_at_epoch": 505,
        "meta_bstar": 0.0020174,
        "meta_mean_motion_dot": 0.00119994,
        "meta_mean_motion_ddot": 0,
        "tle_line1": "1 66482U 25262AC  25344.47830175  .00119994  00000+0  20174-2 0  9994",
        "tle_line2": "2 66482  43.0004  84.2280 0001746 283.0323  77.0342 15.50614152  5055"
      },
      "geometry": {
        "type": "Point",
        "coordinates": [
          30.36453760636473,
          -36.306162671533286
        ]
      }
    },
    {
      "type": "Feature",
      "properties": {
        "norad_id": 66483,
        "name": "STARLINK-35654",
        "group": "last-30-days",
        "lat": -35.487683940423956,
        "lon": 32.485856337613505,
        "alt_km": 416.3042964948654,
        "timestamp": "2025-12-10T18:56:58.832312+00:00",
        "meta_object_name": "STARLINK-35654",
        "meta_object_id": "2025-262AD",
        "meta_epoch": "2025-12-10T11:28:15.727584",
        "meta_mean_motion": 15.50613219,
        "meta_eccentricity": 0.0002133,
        "meta_inclination": 43.0007,
        "meta_ra_of_asc_node": 84.2245,
        "meta_arg_of_pericenter": 288.4132,
        "meta_mean_anomaly": 71.6496,
        "meta_ephemeris_type": 0,
        "meta_classification_type": "U",
        "meta_norad_cat_id": 66483,
        "meta_element_set_no": 999,
        "meta_rev_at_epoch": 521,
        "meta_bstar": 0.0022037,
        "meta_mean_motion_dot": 0.00131294,
        "meta_mean_motion_ddot": 0,
        "tle_line1": "1 66483U 25262AD  25344.47795981  .00131294  00000+0  22037-2 0  9997",
        "tle_line2": "2 66483  43.0007  84.2245 0002133 288.4132  71.6496 15.50613219  5219"
      },
      "geometry": {
        "type": "Point",
        "coordinates": [
          32.485856337613505,
          -35.487683940423956
        ]
      }
    },
    {
      "type": "Feature",
      "properties": {
        "norad_id": 66484,
        "name": "STARLINK-35371",
        "group": "last-30-days",
        "lat": -34.62659627225704,
        "lon": 34.578531223117515,
        "alt_km": 416.5771761001088,
        "timestamp": "2025-12-10T18:56:58.832322+00:00",
        "meta_object_name": "STARLINK-35371",
        "meta_object_id": "2025-262AE",
        "meta_epoch": "2025-12-10T11:27:45.981792",
        "meta_mean_motion": 15.5061093,
        "meta_eccentricity": 0.0001776,
        "meta_inclination": 43.0006,
        "meta_ra_of_asc_node": 84.2228,
        "meta_arg_of_pericenter": 281.3299,
        "meta_mean_anomaly": 78.7361,
        "meta_ephemeris_type": 0,
        "meta_classification_type": "U",
        "meta_norad_cat_id": 66484,
        "meta_element_set_no": 999,
        "meta_rev_at_epoch": 521,
        "meta_bstar": 0.0019759,
        "meta_mean_motion_dot": 0.00117463,
        "meta_mean_motion_ddot": 0,
        "tle_line1": "1 66484U 25262AE  25344.47761553  .00117463  00000+0  19759-2 0  9995",
        "tle_line2": "2 66484  43.0006  84.2228 0001776 281.3299  78.7361 15.50610930  5214"
      },
      "geometry": {
        "type": "Point",
        "coordinates": [
          34.578531223117515,
          -34.62659627225704
        ]
      }
    }
  ]
}